[{"OBJECT_NAME":"LYNK TOWER 5","OBJECT_ID":"2024-043Z","EPOCH":"2026-03-09T22:11:51.175104","MEAN_MOTION":15.29454506,"ECCENTRICITY":0.00104056,"INCLINATION":97.5458,"RA_OF_ASC_NODE":204.7305,"ARG_OF_PERICENTER":234.6422,"MEAN_ANOMALY":125.3846,"EPHEMERIS_TYPE":0,"CLASSIFICATION_TYPE":"U","NORAD_CAT_ID":59121,"ELEMENT_SET_NO":999,"REV_AT_EPOCH":11186,"BSTAR":0.00031901545,"MEAN_MOTION_DOT":9.048e-5,"MEAN_MOTION_DDOT":0},{"OBJECT_NAME":"STARLINK-34320","OBJECT_ID":"2025-117Q","EPOCH":"2026-03-09T07:27:00.129888","MEAN_MOTION":15.301919,"ECCENTRICITY":0.00013198,"INCLINATION":53.1616,"RA_OF_ASC_NODE":41.6498,"ARG_OF_PERICENTER":84.6365,"MEAN_ANOMALY":275.4786,"EPHEMERIS_TYPE":0,"CLASSIFICATION_TYPE":"U","NORAD_CAT_ID":64217,"ELEMENT_SET_NO":999,"REV_AT_EPOCH":4446,"BSTAR":0.00083722431,"MEAN_MOTION_DOT":0.00024513,"MEAN_MOTION_DDOT":0}]
